{
    "links": {
        "self": "http://www.neowsapp.com/rest/v1/neo/3689179?api_key=iIulBulltgU6a56xZRHN4H3l9WmuAYTsLGpBGhQ2"
    },
    "id": "3689179",
    "neo_reference_id": "3689179",
    "name": "(2014 SC)",
    "designation": "2014 SC",
    "nasa_jpl_url": "http://ssd.jpl.nasa.gov/sbdb.cgi?sstr=3689179",
    "absolute_magnitude_h": 26.4,
    "estimated_diameter": {
        "kilometers": {
            "estimated_diameter_min": 0.0139493823,
            "estimated_diameter_max": 0.0311917671
        },
        "meters": {
            "estimated_diameter_min": 13.9493822934,
            "estimated_diameter_max": 31.1917670523
        },
        "miles": {
            "estimated_diameter_min": 0.0086677416,
            "estimated_diameter_max": 0.0193816595
        },
        "feet": {
            "estimated_diameter_min": 45.7656914036,
            "estimated_diameter_max": 102.3351970157
        }
    },
    "is_potentially_hazardous_asteroid": false,
    "close_approach_data": [
        {
            "close_approach_date": "2014-09-22",
            "close_approach_date_full": "2014-Sep-22 09:55",
            "epoch_date_close_approach": 1411379700000,
            "relative_velocity": {
                "kilometers_per_second": "7.5274780817",
                "kilometers_per_hour": "27098.9210941475",
                "miles_per_hour": "16838.2157209718"
            },
            "miss_distance": {
                "astronomical": "0.0304710594",
                "lunar": "11.8532421066",
                "kilometers": "4558405.582883478",
                "miles": "2832461.8862008764"
            },
            "orbiting_body": "Earth"
        }
    ],
    "orbital_data": {
        "orbit_id": "10",
        "orbit_determination_date": "2017-04-06 08:38:41",
        "first_observation_date": "2014-09-16",
        "last_observation_date": "2014-10-01",
        "data_arc_in_days": 15,
        "observations_used": 33,
        "orbit_uncertainty": "8",
        "minimum_orbit_intersection": ".0271029",
        "jupiter_tisserand_invariant": "3.260",
        "epoch_osculation": "2456919.5",
        "eccentricity": ".5764200681482189",
        "semi_major_axis": "2.425437502827992",
        "inclination": "3.071282688840485",
        "ascending_node_longitude": "178.4802067682782",
        "orbital_period": "1379.696490472523",
        "perihelion_distance": "1.027366652158635",
        "perihelion_argument": "191.0229734167387",
        "aphelion_distance": "3.823508353497349",
        "perihelion_time": "2456931.269066253712",
        "mean_anomaly": "356.929133414056",
        "mean_motion": ".2609269520405217",
        "equinox": "J2000",
        "orbit_class": {
            "orbit_class_type": "AMO",
            "orbit_class_description": "Near-Earth asteroid orbits similar to that of 1221 Amor",
            "orbit_class_range": "1.017 AU < q (perihelion) < 1.3 AU"
        }
    },
    "is_sentry_object": false
}